STARLINK-36080          
1 66801U 25278L   25350.25003472 -.01281475  00000+0 -85636-2 0  9992
2 66801  42.9985 230.5319 0001669 269.1864   8.0883 15.76894772  3524
STARLINK-35604          
1 66802U 25278M   25350.25003472 -.01360889  00000+0 -89867-2 0  9990
2 66802  42.9983 230.5640 0001742 271.2483 353.5115 15.77315078  3527
STARLINK-35565          
1 66803U 25278N   25350.25003472 -.01366249  00000+0 -90737-2 0  9995
2 66803  42.9981 230.5531 0001897 271.1671 357.7665 15.77197563  3617
STARLINK-36038          
1 66804U 25278P   25350.25003472 -.01371028  00000+0 -91468-2 0  9999
2 66804  42.9986 230.5478 0001608 270.3532   0.7368 15.77109599  3527
STARLINK-36049          
1 66805U 25278Q   25350.25003472 -.01241613  00000+0 -84122-2 0  9995
2 66805  42.9984 230.5377 0001487 272.5769   2.6361 15.76948505  3526
STARLINK-36069          
1 66806U 25278R   25350.25003472 -.01351008  00000+0 -90119-2 0  9999
2 66806  42.9985 230.5426 0001740 272.1700   0.9133 15.77071820  3319
STARLINK-36000          
1 66807U 25278S   25350.25003472 -.01309598  00000+0 -87935-2 0  9999
2 66807  42.9987 230.5274 0001467 271.2606   8.0709 15.76845830  3580
STARLINK-36071          
1 66808U 25278T   25350.25003472 -.01406307  00000+0 -95163-2 0  9998
2 66808  42.9982 230.5218 0001718 264.4982  16.8422 15.76863393  3521
STARLINK-35979          
1 66809U 25278U   25350.25003472 -.01369762  00000+0 -93594-2 0  9998
2 66809  42.9987 230.5059 0001794 274.1854  13.4292 15.76572761  3524
STARLINK-36046          
1 66810U 25278V   25350.25003472 -.01241045  00000+0 -84979-2 0  9990
2 66810  42.9985 230.5177 0001750 272.7886  10.6734 15.76708316  3297
STARLINK-36045          
1 66811U 25278W   25350.25003472 -.01326278  00000+0 -90064-2 0  9995
2 66811  42.9990 230.5123 0001541 274.1859  11.3817 15.76626695  3524
STARLINK-36054          
1 66812U 25278X   25350.25003472 -.01404209  00000+0 -96393-2 0  9998
2 66812  42.9989 230.5011 0001690 270.1783  19.4327 15.76539812  3525
