CCSDS_OMM_VERS = 2.0
CREATION_DATE  = 
ORIGINATOR     = 

OBJECT_NAME    = STARLINK-36080
OBJECT_ID      = 2025-278L
CENTER_NAME    = EARTH
REF_FRAME      = TEME
TIME_SYSTEM    = UTC
MEAN_ELEMENT_THEORY = SGP/SGP4

EPOCH          = 2025-12-16T06:00:02.999808
MEAN_MOTION    = 15.76894772
ECCENTRICITY   = .0001669
INCLINATION    = 42.9985
RA_OF_ASC_NODE = 230.5319
ARG_OF_PERICENTER = 269.1864
MEAN_ANOMALY   = 8.0883

EPHEMERIS_TYPE = 0
CLASSIFICATION_TYPE = U
NORAD_CAT_ID   = 66801
ELEMENT_SET_NO = 999
REV_AT_EPOCH   = 352
BSTAR          = -.8563617E-2
MEAN_MOTION_DOT = -.1281475E-1
MEAN_MOTION_DDOT = 0

CCSDS_OMM_VERS = 2.0
CREATION_DATE  = 
ORIGINATOR     = 

OBJECT_NAME    = STARLINK-35604
OBJECT_ID      = 2025-278M
CENTER_NAME    = EARTH
REF_FRAME      = TEME
TIME_SYSTEM    = UTC
MEAN_ELEMENT_THEORY = SGP/SGP4

EPOCH          = 2025-12-16T06:00:02.999808
MEAN_MOTION    = 15.77315078
ECCENTRICITY   = .00017425
INCLINATION    = 42.9983
RA_OF_ASC_NODE = 230.5640
ARG_OF_PERICENTER = 271.2483
MEAN_ANOMALY   = 353.5115

EPHEMERIS_TYPE = 0
CLASSIFICATION_TYPE = U
NORAD_CAT_ID   = 66802
ELEMENT_SET_NO = 999
REV_AT_EPOCH   = 352
BSTAR          = -.89867277E-2
MEAN_MOTION_DOT = -.1360889E-1
MEAN_MOTION_DDOT = 0

CCSDS_OMM_VERS = 2.0
CREATION_DATE  = 
ORIGINATOR     = 

OBJECT_NAME    = STARLINK-35565
OBJECT_ID      = 2025-278N
CENTER_NAME    = EARTH
REF_FRAME      = TEME
TIME_SYSTEM    = UTC
MEAN_ELEMENT_THEORY = SGP/SGP4

EPOCH          = 2025-12-16T06:00:02.999808
MEAN_MOTION    = 15.77197563
ECCENTRICITY   = .00018973
INCLINATION    = 42.9981
RA_OF_ASC_NODE = 230.5531
ARG_OF_PERICENTER = 271.1671
MEAN_ANOMALY   = 357.7665

EPHEMERIS_TYPE = 0
CLASSIFICATION_TYPE = U
NORAD_CAT_ID   = 66803
ELEMENT_SET_NO = 999
REV_AT_EPOCH   = 361
BSTAR          = -.90736967E-2
MEAN_MOTION_DOT = -.1366249E-1
MEAN_MOTION_DDOT = 0

CCSDS_OMM_VERS = 2.0
CREATION_DATE  = 
ORIGINATOR     = 

OBJECT_NAME    = STARLINK-36038
OBJECT_ID      = 2025-278P
CENTER_NAME    = EARTH
REF_FRAME      = TEME
TIME_SYSTEM    = UTC
MEAN_ELEMENT_THEORY = SGP/SGP4

EPOCH          = 2025-12-16T06:00:02.999808
MEAN_MOTION    = 15.77109599
ECCENTRICITY   = .00016087
INCLINATION    = 42.9986
RA_OF_ASC_NODE = 230.5478
ARG_OF_PERICENTER = 270.3532
MEAN_ANOMALY   = 0.7368

EPHEMERIS_TYPE = 0
CLASSIFICATION_TYPE = U
NORAD_CAT_ID   = 66804
ELEMENT_SET_NO = 999
REV_AT_EPOCH   = 352
BSTAR          = -.91467982E-2
MEAN_MOTION_DOT = -.1371028E-1
MEAN_MOTION_DDOT = 0

CCSDS_OMM_VERS = 2.0
CREATION_DATE  = 
ORIGINATOR     = 

OBJECT_NAME    = STARLINK-36049
OBJECT_ID      = 2025-278Q
CENTER_NAME    = EARTH
REF_FRAME      = TEME
TIME_SYSTEM    = UTC
MEAN_ELEMENT_THEORY = SGP/SGP4

EPOCH          = 2025-12-16T06:00:02.999808
MEAN_MOTION    = 15.76948505
ECCENTRICITY   = .00014872
INCLINATION    = 42.9984
RA_OF_ASC_NODE = 230.5377
ARG_OF_PERICENTER = 272.5769
MEAN_ANOMALY   = 2.6361

EPHEMERIS_TYPE = 0
CLASSIFICATION_TYPE = U
NORAD_CAT_ID   = 66805
ELEMENT_SET_NO = 999
REV_AT_EPOCH   = 352
BSTAR          = -.84121821E-2
MEAN_MOTION_DOT = -.1241613E-1
MEAN_MOTION_DDOT = 0

CCSDS_OMM_VERS = 2.0
CREATION_DATE  = 
ORIGINATOR     = 

OBJECT_NAME    = STARLINK-36069
OBJECT_ID      = 2025-278R
CENTER_NAME    = EARTH
REF_FRAME      = TEME
TIME_SYSTEM    = UTC
MEAN_ELEMENT_THEORY = SGP/SGP4

EPOCH          = 2025-12-16T06:00:02.999808
MEAN_MOTION    = 15.77071820
ECCENTRICITY   = .00017401
INCLINATION    = 42.9985
RA_OF_ASC_NODE = 230.5426
ARG_OF_PERICENTER = 272.1700
MEAN_ANOMALY   = 0.9133

EPHEMERIS_TYPE = 0
CLASSIFICATION_TYPE = U
NORAD_CAT_ID   = 66806
ELEMENT_SET_NO = 999
REV_AT_EPOCH   = 331
BSTAR          = -.90118531E-2
MEAN_MOTION_DOT = -.1351008E-1
MEAN_MOTION_DDOT = 0

CCSDS_OMM_VERS = 2.0
CREATION_DATE  = 
ORIGINATOR     = 

OBJECT_NAME    = STARLINK-36000
OBJECT_ID      = 2025-278S
CENTER_NAME    = EARTH
REF_FRAME      = TEME
TIME_SYSTEM    = UTC
MEAN_ELEMENT_THEORY = SGP/SGP4

EPOCH          = 2025-12-16T06:00:02.999808
MEAN_MOTION    = 15.76845830
ECCENTRICITY   = .00014672
INCLINATION    = 42.9987
RA_OF_ASC_NODE = 230.5274
ARG_OF_PERICENTER = 271.2606
MEAN_ANOMALY   = 8.0709

EPHEMERIS_TYPE = 0
CLASSIFICATION_TYPE = U
NORAD_CAT_ID   = 66807
ELEMENT_SET_NO = 999
REV_AT_EPOCH   = 358
BSTAR          = -.87934671E-2
MEAN_MOTION_DOT = -.1309598E-1
MEAN_MOTION_DDOT = 0

CCSDS_OMM_VERS = 2.0
CREATION_DATE  = 
ORIGINATOR     = 

OBJECT_NAME    = STARLINK-36071
OBJECT_ID      = 2025-278T
CENTER_NAME    = EARTH
REF_FRAME      = TEME
TIME_SYSTEM    = UTC
MEAN_ELEMENT_THEORY = SGP/SGP4

EPOCH          = 2025-12-16T06:00:02.999808
MEAN_MOTION    = 15.76863393
ECCENTRICITY   = .00017186
INCLINATION    = 42.9982
RA_OF_ASC_NODE = 230.5218
ARG_OF_PERICENTER = 264.4982
MEAN_ANOMALY   = 16.8422

EPHEMERIS_TYPE = 0
CLASSIFICATION_TYPE = U
NORAD_CAT_ID   = 66808
ELEMENT_SET_NO = 999
REV_AT_EPOCH   = 352
BSTAR          = -.95162613E-2
MEAN_MOTION_DOT = -.1406307E-1
MEAN_MOTION_DDOT = 0

CCSDS_OMM_VERS = 2.0
CREATION_DATE  = 
ORIGINATOR     = 

OBJECT_NAME    = STARLINK-35979
OBJECT_ID      = 2025-278U
CENTER_NAME    = EARTH
REF_FRAME      = TEME
TIME_SYSTEM    = UTC
MEAN_ELEMENT_THEORY = SGP/SGP4

EPOCH          = 2025-12-16T06:00:02.999808
MEAN_MOTION    = 15.76572761
ECCENTRICITY   = .00017949
INCLINATION    = 42.9987
RA_OF_ASC_NODE = 230.5059
ARG_OF_PERICENTER = 274.1854
MEAN_ANOMALY   = 13.4292

EPHEMERIS_TYPE = 0
CLASSIFICATION_TYPE = U
NORAD_CAT_ID   = 66809
ELEMENT_SET_NO = 999
REV_AT_EPOCH   = 352
BSTAR          = -.93594188E-2
MEAN_MOTION_DOT = -.1369762E-1
MEAN_MOTION_DDOT = 0

CCSDS_OMM_VERS = 2.0
CREATION_DATE  = 
ORIGINATOR     = 

OBJECT_NAME    = STARLINK-36046
OBJECT_ID      = 2025-278V
CENTER_NAME    = EARTH
REF_FRAME      = TEME
TIME_SYSTEM    = UTC
MEAN_ELEMENT_THEORY = SGP/SGP4

EPOCH          = 2025-12-16T06:00:02.999808
MEAN_MOTION    = 15.76708316
ECCENTRICITY   = .00017502
INCLINATION    = 42.9985
RA_OF_ASC_NODE = 230.5177
ARG_OF_PERICENTER = 272.7886
MEAN_ANOMALY   = 10.6734

EPHEMERIS_TYPE = 0
CLASSIFICATION_TYPE = U
NORAD_CAT_ID   = 66810
ELEMENT_SET_NO = 999
REV_AT_EPOCH   = 329
BSTAR          = -.84979214E-2
MEAN_MOTION_DOT = -.1241045E-1
MEAN_MOTION_DDOT = 0

CCSDS_OMM_VERS = 2.0
CREATION_DATE  = 
ORIGINATOR     = 

OBJECT_NAME    = STARLINK-36045
OBJECT_ID      = 2025-278W
CENTER_NAME    = EARTH
REF_FRAME      = TEME
TIME_SYSTEM    = UTC
MEAN_ELEMENT_THEORY = SGP/SGP4

EPOCH          = 2025-12-16T06:00:02.999808
MEAN_MOTION    = 15.76626695
ECCENTRICITY   = .00015417
INCLINATION    = 42.9990
RA_OF_ASC_NODE = 230.5123
ARG_OF_PERICENTER = 274.1859
MEAN_ANOMALY   = 11.3817

EPHEMERIS_TYPE = 0
CLASSIFICATION_TYPE = U
NORAD_CAT_ID   = 66811
ELEMENT_SET_NO = 999
REV_AT_EPOCH   = 352
BSTAR          = -.9006446E-2
MEAN_MOTION_DOT = -.1326278E-1
MEAN_MOTION_DDOT = 0

CCSDS_OMM_VERS = 2.0
CREATION_DATE  = 
ORIGINATOR     = 

OBJECT_NAME    = STARLINK-36054
OBJECT_ID      = 2025-278X
CENTER_NAME    = EARTH
REF_FRAME      = TEME
TIME_SYSTEM    = UTC
MEAN_ELEMENT_THEORY = SGP/SGP4

EPOCH          = 2025-12-16T06:00:02.999808
MEAN_MOTION    = 15.76539812
ECCENTRICITY   = .00016907
INCLINATION    = 42.9989
RA_OF_ASC_NODE = 230.5011
ARG_OF_PERICENTER = 270.1783
MEAN_ANOMALY   = 19.4327

EPHEMERIS_TYPE = 0
CLASSIFICATION_TYPE = U
NORAD_CAT_ID   = 66812
ELEMENT_SET_NO = 999
REV_AT_EPOCH   = 352
BSTAR          = -.96393179E-2
MEAN_MOTION_DOT = -.1404209E-1
MEAN_MOTION_DDOT = 0

